STARLINK-2754
1 18641C 21044D   21326.16631774 -.00022046  00000-0 -14769-2 0  3262
2 18641  53.0555 322.9897 0001684  58.7852  68.4585 15.06426088    19
